NORAD_CAT_ID,OBJECT_NAME,OBJECT_TYPE,EPOCH,MEAN_MOTION,ECCENTRICITY,INCLINATION,RA_OF_ASC_NODE,ARG_OF_PERICENTER,MEAN_ANOMALY,BSTAR,MEAN_MOTION_DOT,MEAN_MOTION_DDOT,TLE_LINE0,TLE_LINE1,TLE_LINE2,SEMIMAJOR_AXIS,PERIOD,APOGEE,PERIGEE,DECAYED
52088.0,STARLINK-3537,PAYLOAD,2023-07-30 09:41:54,15.08840542,0.0001152,53.2154,298.3291,111.4739,248.6376,7.1861e-05,8.56e-06,0.0,0 STARLINK-3537,1 52088U 22029A   23211.40410357  .00000856  00000-0  71861-4 0  9997,2 52088  53.2154 298.3291 0001152 111.4739 248.6376 15.08840542 78282,6917.879,95.438,540.541,538.947,0.0
52088.0,STARLINK-3537,PAYLOAD,2023-07-31 14:18:50,15.08852013,0.0001114,53.2153,292.9776,94.298,265.8139,0.00016501,2.34e-05,0.0,0 STARLINK-3537,1 52088U 22029A   23212.59641876  .00002340  00000-0  16501-3 0  9999,2 52088  53.2153 292.9776 0001114  94.2980 265.8139 15.08852013 78467,6917.844,95.437,540.479,538.938,0.0
52088.0,STARLINK-3537,PAYLOAD,2023-08-01 14:09:37,15.08857671,8.15e-05,53.2148,288.5186,90.7233,269.3853,-0.00051028,-8.403e-05,0.0,0 STARLINK-3537,1 52088U 22029A   23213.59001312 -.00008403  00000-0 -51028-3 0  9996,2 52088  53.2148 288.5186 0000815  90.7233 269.3853 15.08857671 78610,6917.826,95.436,540.255,539.128,0.0
52088.0,STARLINK-3537,PAYLOAD,2023-08-02 09:14:16,15.08837351,9.45e-05,53.2153,284.9499,92.2205,267.8895,2.4327e-05,9.9e-07,0.0,0 STARLINK-3537,1 52088U 22029A   23214.38491039  .00000099  00000-0  24327-4 0  9997,2 52088  53.2153 284.9499 0000945  92.2205 267.8895 15.08837351 78738,6917.888,95.438,540.407,539.1,0.0
52088.0,STARLINK-3537,PAYLOAD,2023-08-02 12:25:02,15.08844954,0.0001065,53.2155,284.3527,87.2969,272.8145,4.6437e-05,4.51e-06,0.0,0 STARLINK-3537,1 52088U 22029A   23214.51738545  .00000451  00000-0  46437-4 0  9996,2 52088  53.2155 284.3527 0001065  87.2969 272.8145 15.08844954 78754,6917.865,95.437,540.467,538.993,0.0
52088.0,STARLINK-3537,PAYLOAD,2023-08-04 10:31:13,15.08839863,0.000114,53.2153,275.728,83.6849,276.4273,1.8692e-05,1e-07,0.0,0 STARLINK-3537,1 52088U 22029A   23216.43834843  .00000010  00000-0  18692-4 0  9990,2 52088  53.2153 275.7280 0001140  83.6849 276.4273 15.08839863 79041,6917.881,95.438,540.534,538.957,0.0
52088.0,STARLINK-3537,PAYLOAD,2023-08-05 10:21:59,15.08847998,0.000124,53.2156,271.2682,96.6941,263.4193,8.5004e-05,1.066e-05,0.0,0 STARLINK-3537,1 52088U 22029A   23217.43194012  .00001066  00000-0  85004-4 0  9991,2 52088  53.2156 271.2682 0001240  96.6941 263.4193 15.08847998 79190,6917.856,95.437,540.579,538.863,0.0
52088.0,STARLINK-3537,PAYLOAD,2023-08-06 03:51:14,15.08836909,0.0001226,53.2147,267.9981,91.738,268.3753,4.8172e-05,4.79e-06,0.0,0 STARLINK-3537,1 52088U 22029A   23218.16058808  .00000479  00000-0  48172-4 0  9996,2 52088  53.2147 267.9981 0001226  91.7380 268.3753 15.08836909 79300,6917.89,95.438,540.603,538.907,0.0
52088.0,STARLINK-3537,PAYLOAD,2023-08-06 19:45:06,15.08833051,0.0001045,53.2149,265.0246,94.4094,265.7017,-1.0749e-05,-4.59e-06,0.0,0 STARLINK-3537,1 52088U 22029A   23218.82299280 -.00000459  00000-0 -10749-4 0  9999,2 52088  53.2149 265.0246 0001045  94.4094 265.7017 15.08833051 79406,6917.902,95.438,540.49,539.044,0.0
52088.0,STARLINK-3537,PAYLOAD,2023-08-08 01:57:26,15.08832554,0.0001104,53.2147,259.3738,98.3413,261.7704,6.8651e-05,8.05e-06,0.0,0 STARLINK-3537,1 52088U 22029A   23220.08155553  .00000805  00000-0  68651-4 0  9992,2 52088  53.2147 259.3738 0001104  98.3413 261.7704 15.08832554 79596,6917.903,95.438,540.532,539.004,0.0
52088.0,STARLINK-3537,PAYLOAD,2023-08-09 03:23:36,15.08833611,0.0001205,53.2156,254.6163,96.7702,263.3428,6.8204e-05,7.98e-06,0.0,0 STARLINK-3537,1 52088U 22029A   23221.14139970  .00000798  00000-0  68204-4 0  9990,2 52088  53.2156 254.6163 0001205  96.7702 263.3428 15.08833611 79755,6917.9,95.438,540.599,538.931,0.0
52088.0,STARLINK-3537,PAYLOAD,2023-08-10 09:35:56,15.08843967,0.0001141,53.2149,248.966,86.5847,273.5276,6.9907e-05,8.25e-06,0.0,0 STARLINK-3537,1 52088U 22029A   23222.39995488  .00000825  00000-0  69907-4 0  9994,2 52088  53.2149 248.9660 0001141  86.5847 273.5276 15.08843967 79941,6917.868,95.437,540.523,538.944,0.0
52088.0,STARLINK-3537,PAYLOAD,2023-08-11 01:29:47,15.08837624,0.0001144,53.2147,245.9916,86.2413,273.871,6.28e-05,7.12e-06,0.0,0 STARLINK-3537,1 52088U 22029A   23223.06235823  .00000712  00000-0  62800-4 0  9999,2 52088  53.2147 245.9916 0001144  86.2413 273.8710 15.08837624 80041,6917.888,95.438,540.544,538.961,0.0
52088.0,STARLINK-3537,PAYLOAD,2023-08-12 10:52:52,15.08846504,0.0001167,53.2146,239.7464,86.8427,273.2698,4.995e-05,5.07e-06,0.0,0 STARLINK-3537,1 52088U 22029A   23224.45339095  .00000507  00000-0  49950-4 0  9992,2 52088  53.2146 239.7464 0001167  86.8427 273.2698 15.08846504 80254,6917.861,95.437,540.533,538.918,0.0
52088.0,STARLINK-3537,PAYLOAD,2023-08-13 01:11:21,15.08837988,0.0001203,53.2144,237.0694,90.1027,270.0103,1.8393e-05,5e-08,0.0,0 STARLINK-3537,1 52088U 22029A   23225.04955677  .00000005  00000-0  18393-4 0  9998,2 52088  53.2144 237.0694 0001203  90.1027 270.0103 15.08837988 80345,6917.887,95.438,540.584,538.919,0.0
52088.0,STARLINK-3537,PAYLOAD,2023-08-14 07:23:41,15.08839426,0.0001188,53.2144,231.4185,96.3348,263.778,8.4573e-06,-1.53e-06,0.0,0 STARLINK-3537,1 52088U 22029A   23226.30811665 -.00000153  00000-0  84573-5 0  9995,2 52088  53.2144 231.4185 0001188  96.3348 263.7780 15.08839426 80534,6917.882,95.438,540.569,538.925,0.0
52088.0,STARLINK-3537,PAYLOAD,2023-08-15 16:46:47,15.08836643,0.000126,53.2149,225.1745,91.9261,268.1875,5.3204e-05,5.59e-06,0.0,0 STARLINK-3537,1 52088U 22029A   23227.69915995  .00000559  00000-0  53204-4 0  9994,2 52088  53.2149 225.1745 0001260  91.9261 268.1875 15.08836643 80742,6917.891,95.438,540.627,538.884,0.0
52088.0,STARLINK-3537,PAYLOAD,2023-08-17 00:34:30,15.08837786,0.0001293,53.2151,219.227,88.5757,271.5383,7.0037e-05,8.27e-06,0.0,0 STARLINK-3537,1 52088U 22029A   23229.02396259  .00000827  00000-0  70037-4 0  9990,2 52088  53.2151 219.2270 0001293  88.5757 271.5383 15.08837786 80943,6917.887,95.438,540.647,538.858,0.0
52088.0,STARLINK-3537,PAYLOAD,2023-08-18 05:11:26,15.08842085,0.0001295,53.2146,213.8739,87.1705,272.9435,0.00011299,1.511e-05,0.0,0 STARLINK-3537,1 52088U 22029A   23230.21627838  .00001511  00000-0  11299-3 0  9998,2 52088  53.2146 213.8739 0001295  87.1705 272.9435 15.08842085 81129,6917.874,95.437,540.635,538.843,0.0
52088.0,STARLINK-3537,PAYLOAD,2023-08-19 08:13:00,15.08841073,0.000145,53.2152,208.8182,94.3528,265.763,3.3209e-06,-2.35e-06,0.0,0 STARLINK-3537,1 52088U 22029A   23231.34236213 -.00000235  00000-0  33209-5 0  9996,2 52088  53.2152 208.8182 0001450  94.3528 265.7630 15.08841073 81299,6917.877,95.437,540.745,538.739,0.0
52088.0,STARLINK-3537,PAYLOAD,2023-08-20 08:03:46,15.0884677,0.0001388,53.2158,204.3574,98.9036,261.2113,6.1774e-05,6.96e-06,0.0,0 STARLINK-3537,1 52088U 22029A   23232.33595531  .00000696  00000-0  61774-4 0  9994,2 52088  53.2158 204.3574 0001388  98.9036 261.2113 15.08846770 81448,6917.86,95.437,540.685,538.764,0.0
52088.0,STARLINK-3537,PAYLOAD,2023-08-21 01:33:01,15.08833466,0.0001356,53.2146,201.0859,108.4633,251.6506,3.6759e-05,2.97e-06,0.0,0 STARLINK-3537,1 52088U 22029A   23233.06460550  .00000297  00000-0  36759-4 0  9999,2 52088  53.2146 201.0859 0001356 108.4633 251.6506 15.08833466 81559,6917.9,95.438,540.703,538.827,0.0
52088.0,STARLINK-3537,PAYLOAD,2023-08-22 04:34:34,15.08851573,0.0001343,53.2161,196.0319,85.271,274.8435,0.00010838,1.438e-05,0.0,0 STARLINK-3537,1 52088U 22029A   23234.19067603  .00001438  00000-0  10838-3 0  9993,2 52088  53.2161 196.0319 0001343  85.2710 274.8435 15.08851573 81720,6917.845,95.437,540.639,538.781,0.0
52088.0,STARLINK-3537,PAYLOAD,2023-08-23 06:00:43,15.08856645,0.0001309,53.2159,191.2765,104.3971,255.7166,0.00023048,3.384e-05,0.0,0 STARLINK-3537,1 52088U 22029A   23235.25050546  .00003384  00000-0  23048-3 0  9998,2 52088  53.2159 191.2765 0001309 104.3971 255.7166 15.08856645 81884,6917.83,95.437,540.6,538.789,0.0
52088.0,STARLINK-3537,PAYLOAD,2023-08-24 20:09:56,15.08853732,0.0001035,53.2156,184.138,103.5962,256.5145,0.00059807,9.247e-05,0.0,0 STARLINK-3537,1 52088U 22029A   23236.84024144  .00009247  00000-0  59807-3 0  9995,2 52088  53.2156 184.1380 0001035 103.5962 256.5145 15.08853732 82120,6917.838,95.437,540.419,538.987,0.0
52088.0,STARLINK-3537,PAYLOAD,2023-08-25 02:31:27,15.08886658,0.000117,53.2152,182.9492,98.5699,261.5426,0.00020659,3.006e-05,0.0,0 STARLINK-3537,1 52088U 22029A   23237.10517854  .00003006  00000-0  20659-3 0  9990,2 52088  53.2152 182.9492 0001170  98.5699 261.5426 15.08886658 82161,6917.738,95.435,540.412,538.793,0.0
52088.0,STARLINK-3537,PAYLOAD,2023-08-25 05:42:12,15.0889403,0.0001222,53.2157,182.3538,97.7143,262.3988,0.00026387,3.92e-05,0.0,0 STARLINK-3537,1 52088U 22029A   23237.23764987  .00003920  00000-0  26387-3 0  9994,2 52088  53.2157 182.3538 0001222  97.7143 262.3988 15.08894030 82181,6917.715,95.434,540.426,538.735,0.0
52088.0,STARLINK-3537,PAYLOAD,2023-08-25 20:00:38,15.08910824,0.000121,53.2149,179.6757,96.6294,263.4836,0.000521,8.029e-05,0.0,0 STARLINK-3537,1 52088U 22029A   23237.83378425  .00008029  00000-0  52100-3 0  9995,2 52088  53.2149 179.6757 0001210  96.6294 263.4836 15.08910824 82270,6917.664,95.433,540.366,538.692,0.0
52088.0,STARLINK-3537,PAYLOAD,2023-08-26 00:46:47,15.08926754,0.0001221,53.2145,178.7845,96.2832,263.8299,0.00079689,0.00012447,0.0,0 STARLINK-3537,1 52088U 22029A   23238.03249225  .00012447  00000-0  79689-3 0  9993,2 52088  53.2145 178.7845 0001221  96.2832 263.8299 15.08926754 82300,6917.615,95.432,540.325,538.636,0.0
52088.0,STARLINK-3537,PAYLOAD,2023-08-26 05:32:55,15.08939476,0.0001237,53.2141,177.8921,97.4048,262.7085,0.00095908,0.0001505,0.0,0 STARLINK-3537,1 52088U 22029A   23238.23119868  .00015050  00000-0  95908-3 0  9999,2 52088  53.2141 177.8921 0001237  97.4048 262.7085 15.08939476 82339,6917.576,95.431,540.297,538.586,0.0
